     2.11           N: GPS NAV DATA                         RINEX VERSION / TYPE
teqc  2019Feb25                         20221121 12:25:22UTCPGM / RUN BY / DATE
OSX ker:10.11.6|Core i5|gcc 4.3 -m64|OSX ker:10.10+|=+      COMMENT
    4.6566D-09  1.4901D-08 -5.9605D-08 -1.1921D-07          ION ALPHA
    7.9872D+04  8.1920D+04 -6.5536D+04 -4.5875D+05          ION BETA
   -2.793967723846D-09-1.332267629550D-14    61440     1541 DELTA-UTC: A0,A1,T,W
                                                            END OF HEADER
18 09  7 19  0  0  0.0-3.888085484505D-05 3.183231456205D-12 0.000000000000D+00
    4.200000000000D+01 1.406562500000D+02 4.461257257843D-09-1.821570642175D+00
    7.187947630882D-06 1.070593507029D-02 8.918344974518D-06 5.153616632462D+03
    0.000000000000D+00 9.126961231232D-08-3.209352183886D-01-2.291053533554D-07
    9.418999647942D-01 2.003750000000D+02-2.405719191358D+00-7.837112161465D-09
   -9.750406143553D-11 1.000000000000D+00 1.541000000000D+03 0.000000000000D+00
    2.000000000000D+00 0.000000000000D+00-1.071020960808D-08 4.200000000000D+01
   -7.182000000000D+03 4.000000000000D+00
17 09  7 19  0  0  0.0 7.129833102226D-05 2.387423592154D-12 0.000000000000D+00
    8.500000000000D+01 3.468750000000D+00 5.009137222100D-09 3.136355781373D+00
    1.341104507446D-07 4.582416848280D-03 6.226822733879D-06 5.153697975159D+03
    0.000000000000D+00-1.229345798492D-07-2.426126019350D+00-8.381903171539D-08
    9.597135276463D-01 2.574687500000D+02-2.630605970269D+00-7.993904406777D-09
    1.078616357272D-10 1.000000000000D+00 1.541000000000D+03 0.000000000000D+00
    2.800000000000D+00 0.000000000000D+00-1.024454832077D-08 8.500000000000D+01
   -2.280000000000D+02 4.000000000000D+00
26 09  7 19  0  0  0.0 6.474694237113D-05 1.136868377216D-13 0.000000000000D+00
    5.400000000000D+01 4.521875000000D+01 3.845517324089D-09 2.051907403894D-01
    2.477318048477D-06 2.027969434857D-02 1.294538378716D-06 5.154907829285D+03
    0.000000000000D+00-3.017485141754D-07 7.541017506562D-01 3.222376108170D-07
    9.925623641837D-01 3.730000000000D+02 1.025819088614D+00-8.363562661670D-09
    1.435774091468D-10 1.000000000000D+00 1.541000000000D+03 0.000000000000D+00
    2.000000000000D+00 0.000000000000D+00-6.519258022308D-09 5.400000000000D+01
   -1.818000000000D+03 4.000000000000D+00
19 09  7 19  0  0  0.0 1.855473965406D-05-1.364242052659D-12 0.000000000000D+00
    7.800000000000D+01 6.687500000000D+00 5.183430196388D-09 2.528319359907D+00
    5.140900611877D-07 5.759071558714D-03 6.234273314476D-06 5.153621208191D+03
    0.000000000000D+00-6.146728992462D-08-2.370227170527D+00 2.551823854446D-07
    9.573691429076D-01 2.581250000000D+02-3.228870978179D-01-8.147125074747D-09
    2.085801167705D-10 1.000000000000D+00 1.541000000000D+03 0.000000000000D+00
    2.000000000000D+00 0.000000000000D+00-1.443549990654D-08 7.800000000000D+01
   -7.182000000000D+03 4.000000000000D+00
11 09  7 19  0  0  0.0-1.119123771787D-05-1.591615728103D-12 0.000000000000D+00
    3.400000000000D+01-1.115625000000D+01 6.639562278705D-09 2.391048650945D-01
   -4.116445779800D-07 9.511727723293D-03 6.586313247681D-06 5.153684061050D+03
    0.000000000000D+00-2.793967723846D-08-1.613052444875D+00 1.098960638046D-07
    8.888116200573D-01 2.090937500000D+02 7.061724304134D-01-9.103950644658D-09
   -6.364550823374D-10 1.000000000000D+00 1.541000000000D+03 0.000000000000D+00
    2.000000000000D+00 0.000000000000D+00-1.164153218269D-08 3.400000000000D+01
   -5.298000000000D+03 4.000000000000D+00
27 09  7 19  0  0  0.0 6.676977500319D-05 3.183231456205D-12 0.000000000000D+00
    3.300000000000D+01-1.515000000000D+02 4.077669851317D-09 2.795354730956D+00
   -7.886439561844D-06 2.130235126242D-02 3.889203071594D-06 5.153771850586D+03
    0.000000000000D+00 3.073364496231D-07 1.687715514846D+00-1.005828380585D-07
    9.747926069505D-01 3.119375000000D+02-1.571006050731D+00-7.712464112230D-09
   -1.542921411727D-10 1.000000000000D+00 1.541000000000D+03 0.000000000000D+00
    2.000000000000D+00 0.000000000000D+00-4.190951585770D-09 3.300000000000D+01
   -1.248000000000D+03 4.000000000000D+00
28 09  7 19  0  0  0.0-2.598203718662D-05-1.136868377216D-13 0.000000000000D+00
    4.500000000000D+01-5.834375000000D+01 4.199103480943D-09-2.607235946117D+00
   -3.198161721230D-06 1.493654598016D-02 1.086108386517D-05 5.153653034210D+03
    0.000000000000D+00 1.993030309677D-07 2.823137136936D+00-7.078051567078D-08
    9.674987402517D-01 1.685937500000D+02-2.021720889544D+00-7.477097165395D-09
    6.496699185027D-10 1.000000000000D+00 1.541000000000D+03 0.000000000000D+00
    2.000000000000D+00 0.000000000000D+00-1.071020960808D-08 4.500000000000D+01
   -6.858000000000D+03 4.000000000000D+00
22 09  7 19  0  0  0.0 1.952014863491D-04-5.684341886081D-13 0.000000000000D+00
    1.800000000000D+01 1.363750000000D+02 4.444470844336D-09-2.845878842163D+00
    7.068738341331D-06 5.184141453356D-03 9.527429938316D-06 5.153667388916D+03
    0.000000000000D+00-3.539025783539D-08-3.153607661217D-01-2.421438694000D-08
    9.395676608330D-01 1.837812500000D+02-1.898631572392D+00-7.879613931834D-09
   -1.371485699313D-10 1.000000000000D+00 1.541000000000D+03 0.000000000000D+00
    2.000000000000D+00 0.000000000000D+00-1.769512891769D-08 1.800000000000D+01
   -6.828000000000D+03 4.000000000000D+00
28 09  7 19  2  0  0.0-2.598296850920D-05-1.136868377216D-13 0.000000000000D+00
    4.600000000000D+01-5.731250000000D+01 4.197317692272D-09-1.557058013373D+00
   -2.814456820488D-06 1.493703713641D-02 1.049786806107D-05 5.153652250290D+03
    7.200000000000D+03 3.017485141754D-07 2.823083633634D+00 1.359730958939D-07
    9.675029812512D-01 1.742187500000D+02-2.021707326831D+00-7.596745006351D-09
    5.807384758028D-10 1.000000000000D+00 1.541000000000D+03 0.000000000000D+00
    2.000000000000D+00 0.000000000000D+00-1.071020960808D-08 4.600000000000D+01
    1.800000000000D+01 4.000000000000D+00
19 09  7 19  2  0  0.0 1.854496076703D-05-1.364242052659D-12 0.000000000000D+00
    9.000000000000D+01 1.068750000000D+01 5.104141179396D-09-2.704639510017D+00
    6.705522537231D-07 5.759890773334D-03 6.506219506264D-06 5.153619663239D+03
    7.200000000000D+03-1.117587089539D-07-2.370285691639D+00 1.490116119385D-08
    9.573717878635D-01 2.539062500000D+02-3.228952506604D-01-7.969260523117D-09
    3.039412318009D-10 1.000000000000D+00 1.541000000000D+03 0.000000000000D+00
    2.000000000000D+00 0.000000000000D+00-1.443549990654D-08 9.000000000000D+01
    1.800000000000D+01 4.000000000000D+00
22 09  7 19  2  0  0.0 1.951972953975D-04-5.684341886081D-13 0.000000000000D+00
    3.700000000000D+01 1.458437500000D+02 4.626621288776D-09-1.795926662548D+00
    7.361173629761D-06 5.185587215237D-03 9.160488843918D-06 5.153663898468D+03
    7.200000000000D+03 1.676380634308D-07-3.154169246210D-01 0.000000000000D+00
    9.395658775358D-01 1.943437500000D+02-1.898398065797D+00-7.989618513966D-09
   -2.807259790781D-10 1.000000000000D+00 1.541000000000D+03 0.000000000000D+00
    2.000000000000D+00 0.000000000000D+00-1.769512891769D-08 3.700000000000D+01
    1.800000000000D+01 4.000000000000D+00
 8 09  7 19  2  0  0.0-2.125636674464D-04-1.818989403546D-12 0.000000000000D+00
    2.800000000000D+01-1.148125000000D+02 3.668009930194D-09 7.488276881361D-01
   -6.027519702911D-06 1.073162117973D-02 4.749745130539D-06 5.153642152786D+03
    7.200000000000D+03 2.123415470123D-07 1.806987274124D+00 1.247972249985D-07
    9.890995405374D-01 3.031562500000D+02 2.999292426420D+00-7.876756669960D-09
   -4.643050544549D-11 1.000000000000D+00 1.541000000000D+03 0.000000000000D+00
    2.000000000000D+00 0.000000000000D+00-3.725290298462D-09 2.800000000000D+01
    1.800000000000D+01 4.000000000000D+00
18 09  7 19  2  0  0.0-3.885850310326D-05 3.183231456205D-12 0.000000000000D+00
    7.100000000000D+01 1.360937500000D+02 4.657336853917D-09-7.712584223291D-01
    6.932765245438D-06 1.070681621786D-02 8.316710591316D-06 5.153618940353D+03
    7.200000000000D+03 1.564621925354D-07-3.209915026988D-01 2.011656761169D-07
    9.418970374952D-01 2.121562500000D+02-2.405816191604D+00-8.222128198928D-09
   -2.950122884460D-10 1.000000000000D+00 1.541000000000D+03 0.000000000000D+00
    2.000000000000D+00 0.000000000000D+00-1.071020960808D-08 7.100000000000D+01
    1.800000000000D+01 4.000000000000D+00
11 09  7 19  2  0  0.0-1.120287925005D-05-1.591615728103D-12 0.000000000000D+00
    3.500000000000D+01-1.325000000000D+01 6.729923185457D-09 1.289309185954D+00
   -4.526227712631D-07 9.511418291368D-03 6.871297955513D-06 5.153683452606D+03
    7.200000000000D+03-1.061707735062D-07-1.613118066991D+00 1.527369022369D-07
    8.888070455125D-01 2.108437500000D+02 7.061587170193D-01-9.080735391935D-09
   -6.078824636017D-10 1.000000000000D+00 1.541000000000D+03 0.000000000000D+00
    2.000000000000D+00 0.000000000000D+00-1.164153218269D-08 3.500000000000D+01
    1.800000000000D+01 4.000000000000D+00
26 09  7 19  2  0  0.0 6.474787369370D-05 1.136868377216D-13 0.000000000000D+00
    5.500000000000D+01 4.618750000000D+01 3.960522114500D-09 1.254635236228D+00
    2.225860953331D-06 2.027909166645D-02 1.363456249237D-06 5.154906387329D+03
    7.200000000000D+03-3.594905138016D-07 7.540425961008D-01-5.401670932770D-08
    9.925621988739D-01 3.780937500000D+02 1.025796916628D+00-8.340347408947D-09
   -8.464638300447D-11 1.000000000000D+00 1.541000000000D+03 0.000000000000D+00
    2.000000000000D+00 0.000000000000D+00-6.519258022308D-09 5.500000000000D+01
    1.800000000000D+01 4.000000000000D+00
